{
  "type": "FeatureCollection",
  "features": [
    {
      "type": "Feature",
      "properties": {
        "norad_id": 66505,
        "name": "STARLINK-34766",
        "group": "last-30-days",
        "lat": 42.97840225009208,
        "lon": -112.68706327459397,
        "alt_km": 395.5745667441188,
        "timestamp": "2025-12-07T03:52:31.203539+00:00",
        "meta_object_name": "STARLINK-34766",
        "meta_object_id": "2025-263W",
        "meta_epoch": "2025-12-06T14:00:01.999872",
        "meta_mean_motion": 15.58013523,
        "meta_eccentricity": 0.00015577,
        "meta_inclination": 42.9997,
        "meta_ra_of_asc_node": 161.1467,
        "meta_arg_of_pericenter": 273.1753,
        "meta_mean_anomaly": 172.8148,
        "meta_ephemeris_type": 0,
        "meta_classification_type": "U",
        "meta_norad_cat_id": 66505,
        "meta_element_set_no": 999,
        "meta_rev_at_epoch": 464,
        "meta_bstar": -0.030882391,
        "meta_mean_motion_dot": -0.02116183,
        "meta_mean_motion_ddot": 0,
        "tle_line1": "1 66505U 25263W   25340.58335648 -.02116183  00000+0 -30882-1 0  9991",
        "tle_line2": "2 66505  42.9997 161.1467 0001557 273.1753 172.8148 15.58013523  4644"
      },
      "geometry": {
        "type": "Point",
        "coordinates": [
          -112.68706327459397,
          42.97840225009208
        ]
      }
    },
    {
      "type": "Feature",
      "properties": {
        "norad_id": 66506,
        "name": "STARLINK-34765",
        "group": "last-30-days",
        "lat": 42.95806823458975,
        "lon": -110.06897398030564,
        "alt_km": 395.5424269183941,
        "timestamp": "2025-12-07T03:52:31.203549+00:00",
        "meta_object_name": "STARLINK-34765",
        "meta_object_id": "2025-263X",
        "meta_epoch": "2025-12-06T14:00:01.999872",
        "meta_mean_motion": 15.58014399,
        "meta_eccentricity": 0.00014951,
        "meta_inclination": 42.9997,
        "meta_ra_of_asc_node": 161.1426,
        "meta_arg_of_pericenter": 272.569,
        "meta_mean_anomaly": 175.3379,
        "meta_ephemeris_type": 0,
        "meta_classification_type": "U",
        "meta_norad_cat_id": 66506,
        "meta_element_set_no": 999,
        "meta_rev_at_epoch": 464,
        "meta_bstar": -0.03089658,
        "meta_mean_motion_dot": -0.02117067,
        "meta_mean_motion_ddot": 0,
        "tle_line1": "1 66506U 25263X   25340.58335648 -.02117067  00000+0 -30897-1 0  9990",
        "tle_line2": "2 66506  42.9997 161.1426 0001495 272.5690 175.3379 15.58014399  4640"
      },
      "geometry": {
        "type": "Point",
        "coordinates": [
          -110.06897398030564,
          42.95806823458975
        ]
      }
    },
    {
      "type": "Feature",
      "properties": {
        "norad_id": 66507,
        "name": "STARLINK-34767",
        "group": "last-30-days",
        "lat": 42.73844393861594,
        "lon": -104.85073936838825,
        "alt_km": 395.53257690251485,
        "timestamp": "2025-12-07T03:52:31.203559+00:00",
        "meta_object_name": "STARLINK-34767",
        "meta_object_id": "2025-263Y",
        "meta_epoch": "2025-12-06T14:00:01.999872",
        "meta_mean_motion": 15.58010611,
        "meta_eccentricity": 0.00014328,
        "meta_inclination": 42.9999,
        "meta_ra_of_asc_node": 161.1318,
        "meta_arg_of_pericenter": 272.2623,
        "meta_mean_anomaly": 179.4829,
        "meta_ephemeris_type": 0,
        "meta_classification_type": "U",
        "meta_norad_cat_id": 66507,
        "meta_element_set_no": 999,
        "meta_rev_at_epoch": 464,
        "meta_bstar": -0.030839685,
        "meta_mean_motion_dot": -0.02113284,
        "meta_mean_motion_ddot": 0,
        "tle_line1": "1 66507U 25263Y   25340.58335648 -.02113284  00000+0 -30840-1 0  9996",
        "tle_line2": "2 66507  42.9999 161.1318 0001432 272.2623 179.4829 15.58010611  4645"
      },
      "geometry": {
        "type": "Point",
        "coordinates": [
          -104.85073936838825,
          42.73844393861594
        ]
      }
    },
    {
      "type": "Feature",
      "properties": {
        "norad_id": 66508,
        "name": "STARLINK-35608",
        "group": "last-30-days",
        "lat": 41.96936915511343,
        "lon": -97.14293381408423,
        "alt_km": 395.68327608140225,
        "timestamp": "2025-12-07T03:52:31.203571+00:00",
        "meta_object_name": "STARLINK-35608",
        "meta_object_id": "2025-263Z",
        "meta_epoch": "2025-12-06T14:00:01.999872",
        "meta_mean_motion": 15.58012958,
        "meta_eccentricity": 0.00014817,
        "meta_inclination": 42.9996,
        "meta_ra_of_asc_node": 161.118,
        "meta_arg_of_pericenter": 272.6432,
        "meta_mean_anomaly": 184.8498,
        "meta_ephemeris_type": 0,
        "meta_classification_type": "U",
        "meta_norad_cat_id": 66508,
        "meta_element_set_no": 999,
        "meta_rev_at_epoch": 464,
        "meta_bstar": -0.030870125,
        "meta_mean_motion_dot": -0.02115342,
        "meta_mean_motion_ddot": 0,
        "tle_line1": "1 66508U 25263Z   25340.58335648 -.02115342  00000+0 -30870-1 0  9997",
        "tle_line2": "2 66508  42.9996 161.1180 0001481 272.6432 184.8498 15.58012958  4644"
      },
      "geometry": {
        "type": "Point",
        "coordinates": [
          -97.14293381408423,
          41.96936915511343
        ]
      }
    },
    {
      "type": "Feature",
      "properties": {
        "norad_id": 66509,
        "name": "STARLINK-35598",
        "group": "last-30-days",
        "lat": 40.16871149677826,
        "lon": -87.25825039579766,
        "alt_km": 395.9071362011837,
        "timestamp": "2025-12-07T03:52:31.203582+00:00",
        "meta_object_name": "STARLINK-35598",
        "meta_object_id": "2025-263AA",
        "meta_epoch": "2025-12-06T14:00:01.999872",
        "meta_mean_motion": 15.58008292,
        "meta_eccentricity": 0.00014621,
        "meta_inclination": 42.9997,
        "meta_ra_of_asc_node": 161.0969,
        "meta_arg_of_pericenter": 272.0303,
        "meta_mean_anomaly": 193.1334,
        "meta_ephemeris_type": 0,
        "meta_classification_type": "U",
        "meta_norad_cat_id": 66509,
        "meta_element_set_no": 999,
        "meta_rev_at_epoch": 464,
        "meta_bstar": -0.030770342,
        "meta_mean_motion_dot": -0.0210891,
        "meta_mean_motion_ddot": 0,
        "tle_line1": "1 66509U 25263AA  25340.58335648 -.02108910  00000+0 -30770-1 0  9990",
        "tle_line2": "2 66509  42.9997 161.0969 0001462 272.0303 193.1334 15.58008292  4648"
      },
      "geometry": {
        "type": "Point",
        "coordinates": [
          -87.25825039579766,
          40.16871149677826
        ]
      }
    },
    {
      "type": "Feature",
      "properties": {
        "norad_id": 66510,
        "name": "STARLINK-35600",
        "group": "last-30-days",
        "lat": 41.599170879557505,
        "lon": -94.62068163082603,
        "alt_km": 395.65851151824427,
        "timestamp": "2025-12-07T03:52:31.203592+00:00",
        "meta_object_name": "STARLINK-35600",
        "meta_object_id": "2025-263AB",
        "meta_epoch": "2025-12-06T14:00:01.999872",
        "meta_mean_motion": 15.58009076,
        "meta_eccentricity": 0.00013865,
        "meta_inclination": 42.9996,
        "meta_ra_of_asc_node": 161.1118,
        "meta_arg_of_pericenter": 272.5397,
        "meta_mean_anomaly": 186.8731,
        "meta_ephemeris_type": 0,
        "meta_classification_type": "U",
        "meta_norad_cat_id": 66510,
        "meta_element_set_no": 999,
        "meta_rev_at_epoch": 464,
        "meta_bstar": -0.030787078,
        "meta_mean_motion_dot": -0.02109935,
        "meta_mean_motion_ddot": 0,
        "tle_line1": "1 66510U 25263AB  25340.58335648 -.02109935  00000+0 -30787-1 0  9998",
        "tle_line2": "2 66510  42.9996 161.1118 0001386 272.5397 186.8731 15.58009076  4640"
      },
      "geometry": {
        "type": "Point",
        "coordinates": [
          -94.62068163082603,
          41.599170879557505
        ]
      }
    },
    {
      "type": "Feature",
      "properties": {
        "norad_id": 66511,
        "name": "STARLINK-35444",
        "group": "last-30-days",
        "lat": 40.69810475401261,
        "lon": -89.6792667023473,
        "alt_km": 395.87012437796875,
        "timestamp": "2025-12-07T03:52:31.203602+00:00",
        "meta_object_name": "STARLINK-35444",
        "meta_object_id": "2025-263AC",
        "meta_epoch": "2025-12-06T14:00:01.999872",
        "meta_mean_motion": 15.58012929,
        "meta_eccentricity": 0.00015007,
        "meta_inclination": 42.9996,
        "meta_ra_of_asc_node": 161.1022,
        "meta_arg_of_pericenter": 271.6224,
        "meta_mean_anomaly": 191.6217,
        "meta_ephemeris_type": 0,
        "meta_classification_type": "U",
        "meta_norad_cat_id": 66511,
        "meta_element_set_no": 999,
        "meta_rev_at_epoch": 464,
        "meta_bstar": -0.030868687,
        "meta_mean_motion_dot": -0.02115266,
        "meta_mean_motion_ddot": 0,
        "tle_line1": "1 66511U 25263AC  25340.58335648 -.02115266  00000+0 -30869-1 0  9994",
        "tle_line2": "2 66511  42.9996 161.1022 0001500 271.6224 191.6217 15.58012929  4646"
      },
      "geometry": {
        "type": "Point",
        "coordinates": [
          -89.6792667023473,
          40.69810475401261
        ]
      }
    }
  ]
}